{"fetched_at":"2026-07-08T17:59:26.812Z","source":"https://celestrak.org/NORAD/elements/gp.php?GROUP=planet&FORMAT=JSON","constellation":"superdove","records":[{"OBJECT_NAME":"FLOCK 4Q-16","OBJECT_ID":"2023-174R","EPOCH":"2026-07-08T11:25:44.377248","CLASSIFICATION_TYPE":"U","MEAN_MOTION":15.50173855,"ECCENTRICITY":0.0007038,"INCLINATION":97.3825,"RA_OF_ASC_NODE":278.0913,"ARG_OF_PERICENTER":96.272,"MEAN_ANOMALY":263.9333,"EPHEMERIS_TYPE":0,"NORAD_CAT_ID":58271,"ELEMENT_SET_NO":999,"REV_AT_EPOCH":14887,"BSTAR":0.00025199,"MEAN_MOTION_DOT":0.00014132,"MEAN_MOTION_DDOT":0},{"OBJECT_NAME":"FLOCK 4Q-11","OBJECT_ID":"2023-174T","EPOCH":"2026-07-08T12:22:53.549184","CLASSIFICATION_TYPE":"U","MEAN_MOTION":15.50651719,"ECCENTRICITY":0.0006783,"INCLINATION":97.3859,"RA_OF_ASC_NODE":278.7592,"ARG_OF_PERICENTER":91.7132,"MEAN_ANOMALY":268.4896,"EPHEMERIS_TYPE":0,"NORAD_CAT_ID":58273,"ELEMENT_SET_NO":999,"REV_AT_EPOCH":14889,"BSTAR":0.00037608,"MEAN_MOTION_DOT":0.00021516,"MEAN_MOTION_DDOT":0},{"OBJECT_NAME":"FLOCK 4Q-28","OBJECT_ID":"2023-174AA","EPOCH":"2026-07-08T12:42:37.022688","CLASSIFICATION_TYPE":"U","MEAN_MOTION":15.56468084,"ECCENTRICITY":0.0005364,"INCLINATION":97.3878,"RA_OF_ASC_NODE":281.4471,"ARG_OF_PERICENTER":84.13,"MEAN_ANOMALY":276.0566,"EPHEMERIS_TYPE":0,"NORAD_CAT_ID":58280,"ELEMENT_SET_NO":999,"REV_AT_EPOCH":14906,"BSTAR":0.00034836,"MEAN_MOTION_DOT":0.00024597,"MEAN_MOTION_DDOT":0},{"OBJECT_NAME":"FLOCK 4Q-27","OBJECT_ID":"2023-174AC","EPOCH":"2026-07-07T18:15:34.472160","CLASSIFICATION_TYPE":"U","MEAN_MOTION":15.56630679,"ECCENTRICITY":0.0004606,"INCLINATION":97.3805,"RA_OF_ASC_NODE":280.0638,"ARG_OF_PERICENTER":90.5166,"MEAN_ANOMALY":269.6617,"EPHEMERIS_TYPE":0,"NORAD_CAT_ID":58282,"ELEMENT_SET_NO":999,"REV_AT_EPOCH":14895,"BSTAR":0.0002633,"MEAN_MOTION_DOT":0.00018662,"MEAN_MOTION_DDOT":0},{"OBJECT_NAME":"FLOCK 4Q-7","OBJECT_ID":"2023-174BQ","EPOCH":"2026-07-08T05:32:13.102080","CLASSIFICATION_TYPE":"U","MEAN_MOTION":15.57012826,"ECCENTRICITY":0.0005177,"INCLINATION":97.3903,"RA_OF_ASC_NODE":281.4547,"ARG_OF_PERICENTER":68.3613,"MEAN_ANOMALY":291.8193,"EPHEMERIS_TYPE":0,"NORAD_CAT_ID":58318,"ELEMENT_SET_NO":999,"REV_AT_EPOCH":14902,"BSTAR":0.00037933,"MEAN_MOTION_DOT":0.00027348,"MEAN_MOTION_DDOT":0},{"OBJECT_NAME":"FLOCK 4Q-2","OBJECT_ID":"2023-174BS","EPOCH":"2026-07-08T12:00:48.943872","CLASSIFICATION_TYPE":"U","MEAN_MOTION":15.50610572,"ECCENTRICITY":0.0005448,"INCLINATION":97.3832,"RA_OF_ASC_NODE":278.4594,"ARG_OF_PERICENTER":72.1432,"MEAN_ANOMALY":288.0413,"EPHEMERIS_TYPE":0,"NORAD_CAT_ID":58320,"ELEMENT_SET_NO":999,"REV_AT_EPOCH":14890,"BSTAR":0.0003019,"MEAN_MOTION_DOT":0.00017213,"MEAN_MOTION_DDOT":0},{"OBJECT_NAME":"FLOCK 4Q-9","OBJECT_ID":"2023-174BU","EPOCH":"2026-07-08T12:27:56.605824","CLASSIFICATION_TYPE":"U","MEAN_MOTION":15.51088866,"ECCENTRICITY":0.0006275,"INCLINATION":97.3853,"RA_OF_ASC_NODE":278.5826,"ARG_OF_PERICENTER":73.2124,"MEAN_ANOMALY":286.9816,"EPHEMERIS_TYPE":0,"NORAD_CAT_ID":58322,"ELEMENT_SET_NO":999,"REV_AT_EPOCH":14889,"BSTAR":0.00039841,"MEAN_MOTION_DOT":0.00023158,"MEAN_MOTION_DDOT":0},{"OBJECT_NAME":"FLOCK 4Q-4","OBJECT_ID":"2023-174BZ","EPOCH":"2026-07-08T04:54:27.141984","CLASSIFICATION_TYPE":"U","MEAN_MOTION":15.49633184,"ECCENTRICITY":0.0006301,"INCLINATION":97.3818,"RA_OF_ASC_NODE":277.3943,"ARG_OF_PERICENTER":95.1104,"MEAN_ANOMALY":265.0866,"EPHEMERIS_TYPE":0,"NORAD_CAT_ID":58327,"ELEMENT_SET_NO":999,"REV_AT_EPOCH":14881,"BSTAR":0.00030649,"MEAN_MOTION_DOT":0.00016886,"MEAN_MOTION_DDOT":0},{"OBJECT_NAME":"FLOCK 4Q-13","OBJECT_ID":"2023-174CA","EPOCH":"2026-07-08T12:36:28.200096","CLASSIFICATION_TYPE":"U","MEAN_MOTION":15.52656454,"ECCENTRICITY":0.000636,"INCLINATION":97.4002,"RA_OF_ASC_NODE":280.9787,"ARG_OF_PERICENTER":75.7774,"MEAN_ANOMALY":284.4185,"EPHEMERIS_TYPE":0,"NORAD_CAT_ID":58328,"ELEMENT_SET_NO":999,"REV_AT_EPOCH":14898,"BSTAR":0.00030087,"MEAN_MOTION_DOT":0.00018462,"MEAN_MOTION_DDOT":0},{"OBJECT_NAME":"FLOCK 4BE-18","OBJECT_ID":"2024-149N","EPOCH":"2026-07-08T11:49:34.935744","CLASSIFICATION_TYPE":"U","MEAN_MOTION":15.42592454,"ECCENTRICITY":0.0004649,"INCLINATION":97.3718,"RA_OF_ASC_NODE":273.4545,"ARG_OF_PERICENTER":163.5621,"MEAN_ANOMALY":196.5778,"EPHEMERIS_TYPE":0,"NORAD_CAT_ID":60480,"ELEMENT_SET_NO":999,"REV_AT_EPOCH":10559,"BSTAR":0.0002326,"MEAN_MOTION_DOT":0.00010029,"MEAN_MOTION_DDOT":0},{"OBJECT_NAME":"FLOCK 4BE-7","OBJECT_ID":"2024-149P","EPOCH":"2026-07-07T17:47:20.842080","CLASSIFICATION_TYPE":"U","MEAN_MOTION":15.41228317,"ECCENTRICITY":0.0003775,"INCLINATION":97.3752,"RA_OF_ASC_NODE":271.9967,"ARG_OF_PERICENTER":169.1066,"MEAN_ANOMALY":191.0263,"EPHEMERIS_TYPE":0,"NORAD_CAT_ID":60481,"ELEMENT_SET_NO":999,"REV_AT_EPOCH":10541,"BSTAR":0.00039831,"MEAN_MOTION_DOT":0.00016481,"MEAN_MOTION_DDOT":0},{"OBJECT_NAME":"FLOCK 4BE-36","OBJECT_ID":"2024-149U","EPOCH":"2026-07-07T19:18:21.828384","CLASSIFICATION_TYPE":"U","MEAN_MOTION":15.43371063,"ECCENTRICITY":0.0004206,"INCLINATION":97.3736,"RA_OF_ASC_NODE":273.4881,"ARG_OF_PERICENTER":173.0699,"MEAN_ANOMALY":187.0608,"EPHEMERIS_TYPE":0,"NORAD_CAT_ID":60486,"ELEMENT_SET_NO":999,"REV_AT_EPOCH":10553,"BSTAR":0.0002343,"MEAN_MOTION_DOT":0.00010371,"MEAN_MOTION_DDOT":0},{"OBJECT_NAME":"FLOCK 4BE-25","OBJECT_ID":"2024-149V","EPOCH":"2026-07-08T11:27:55.931616","CLASSIFICATION_TYPE":"U","MEAN_MOTION":15.39414905,"ECCENTRICITY":0.0003208,"INCLINATION":97.3789,"RA_OF_ASC_NODE":272.78,"ARG_OF_PERICENTER":157.5408,"MEAN_ANOMALY":202.5979,"EPHEMERIS_TYPE":0,"NORAD_CAT_ID":60487,"ELEMENT_SET_NO":999,"REV_AT_EPOCH":10551,"BSTAR":0.00025742,"MEAN_MOTION_DOT":0.00009995,"MEAN_MOTION_DDOT":0},{"OBJECT_NAME":"FLOCK 4BE-31","OBJECT_ID":"2024-149W","EPOCH":"2026-07-07T18:01:33.032064","CLASSIFICATION_TYPE":"U","MEAN_MOTION":15.44940045,"ECCENTRICITY":0.0003285,"INCLINATION":97.379,"RA_OF_ASC_NODE":274.3529,"ARG_OF_PERICENTER":170.1346,"MEAN_ANOMALY":189.9968,"EPHEMERIS_TYPE":0,"NORAD_CAT_ID":60488,"ELEMENT_SET_NO":999,"REV_AT_EPOCH":10555,"BSTAR":0.00030829,"MEAN_MOTION_DOT":0.00014426,"MEAN_MOTION_DDOT":0},{"OBJECT_NAME":"FLOCK 4BE-20","OBJECT_ID":"2024-149X","EPOCH":"2026-07-07T16:06:36.661824","CLASSIFICATION_TYPE":"U","MEAN_MOTION":15.38668067,"ECCENTRICITY":0.0004339,"INCLINATION":97.3688,"RA_OF_ASC_NODE":270.7948,"ARG_OF_PERICENTER":173.8543,"MEAN_ANOMALY":186.2757,"EPHEMERIS_TYPE":0,"NORAD_CAT_ID":60489,"ELEMENT_SET_NO":999,"REV_AT_EPOCH":10536,"BSTAR":0.00026063,"MEAN_MOTION_DOT":0.00009877,"MEAN_MOTION_DDOT":0},{"OBJECT_NAME":"FLOCK 4BE-23","OBJECT_ID":"2024-149Y","EPOCH":"2026-07-07T16:00:26.476704","CLASSIFICATION_TYPE":"U","MEAN_MOTION":15.38226346,"ECCENTRICITY":0.0003912,"INCLINATION":97.377,"RA_OF_ASC_NODE":271.177,"ARG_OF_PERICENTER":177.3071,"MEAN_ANOMALY":182.8195,"EPHEMERIS_TYPE":0,"NORAD_CAT_ID":60490,"ELEMENT_SET_NO":999,"REV_AT_EPOCH":10534,"BSTAR":0.00025339,"MEAN_MOTION_DOT":0.00009462,"MEAN_MOTION_DDOT":0}]}
