FLOCK 4Q-16             
1 58271U 23174R   26189.47620807  .00014132  00000+0  25199-3 0  9999
2 58271  97.3825 278.0913 0007038  96.2720 263.9333 15.50173855148870
FLOCK 4Q-11             
1 58273U 23174T   26189.51589756  .00021516  00000+0  37608-3 0  9995
2 58273  97.3859 278.7592 0006783  91.7132 268.4896 15.50651719148898
FLOCK 4Q-28             
1 58280U 23174AA  26189.52959517  .00024597  00000+0  34836-3 0  9992
2 58280  97.3878 281.4471 0005364  84.1300 276.0566 15.56468084149067
FLOCK 4Q-27             
1 58282U 23174AC  26188.76081565  .00018662  00000+0  26330-3 0  9994
2 58282  97.3805 280.0638 0004606  90.5166 269.6617 15.56630679148951
FLOCK 4Q-7              
1 58318U 23174BQ  26189.23070720  .00027348  00000+0  37933-3 0  9990
2 58318  97.3903 281.4547 0005177  68.3613 291.8193 15.57012826149022
FLOCK 4Q-2              
1 58320U 23174BS  26189.50056648  .00017213  00000+0  30190-3 0  9994
2 58320  97.3832 278.4594 0005448  72.1432 288.0413 15.50610572148901
FLOCK 4Q-9              
1 58322U 23174BU  26189.51940516  .00023158  00000+0  39841-3 0  9990
2 58322  97.3853 278.5826 0006275  73.2124 286.9816 15.51088866148892
FLOCK 4Q-4              
1 58327U 23174BZ  26189.20448081  .00016886  00000+0  30649-3 0  9998
2 58327  97.3818 277.3943 0006301  95.1104 265.0866 15.49633184148817
FLOCK 4Q-13             
1 58328U 23174CA  26189.52532639  .00018462  00000+0  30087-3 0  9995
2 58328  97.4002 280.9787 0006360  75.7774 284.4185 15.52656454148988
FLOCK 4BE-18            
1 60480U 24149N   26189.49276546  .00010029  00000+0  23260-3 0  9994
2 60480  97.3718 273.4545 0004649 163.5621 196.5778 15.42592454105596
FLOCK 4BE-7             
1 60481U 24149P   26188.74121345  .00016481  00000+0  39831-3 0  9997
2 60481  97.3752 271.9967 0003775 169.1066 191.0263 15.41228317105413
FLOCK 4BE-36            
1 60486U 24149U   26188.80441931  .00010371  00000+0  23430-3 0  9995
2 60486  97.3736 273.4881 0004206 173.0699 187.0608 15.43371063105538
FLOCK 4BE-25            
1 60487U 24149V   26189.47773069  .00009995  00000+0  25742-3 0  9998
2 60487  97.3789 272.7800 0003208 157.5408 202.5979 15.39414905105516
FLOCK 4BE-31            
1 60488U 24149W   26188.75107676  .00014426  00000+0  30829-3 0  9991
2 60488  97.3790 274.3529 0003285 170.1346 189.9968 15.44940045105557
FLOCK 4BE-20            
1 60489U 24149X   26188.67125766  .00009877  00000+0  26063-3 0  9992
2 60489  97.3688 270.7948 0004339 173.8543 186.2757 15.38668067105368
FLOCK 4BE-23            
1 60490U 24149Y   26188.66697311  .00009462  00000+0  25339-3 0  9998
2 60490  97.3770 271.1770 0003912 177.3071 182.8195 15.38226346105347
